[{"OBJECT_NAME":"ION SCV-016","OBJECT_ID":"2025-009V","EPOCH":"2026-03-09T15:48:19.049184","MEAN_MOTION":14.46743407,"ECCENTRICITY":0.06066159,"INCLINATION":97.4455,"RA_OF_ASC_NODE":117.8911,"ARG_OF_PERICENTER":59.3392,"MEAN_ANOMALY":306.6163,"EPHEMERIS_TYPE":0,"CLASSIFICATION_TYPE":"U","NORAD_CAT_ID":62628,"ELEMENT_SET_NO":999,"REV_AT_EPOCH":6113,"BSTAR":0.0005439681,"MEAN_MOTION_DOT":0.00025234,"MEAN_MOTION_DDOT":0},{"OBJECT_NAME":"STARLINK-36792","OBJECT_ID":"2026-032H","EPOCH":"2026-03-09T22:32:24.452160","MEAN_MOTION":15.75254774,"ECCENTRICITY":0.00013604,"INCLINATION":97.285,"RA_OF_ASC_NODE":255.4526,"ARG_OF_PERICENTER":82.2848,"MEAN_ANOMALY":277.8572,"EPHEMERIS_TYPE":0,"CLASSIFICATION_TYPE":"U","NORAD_CAT_ID":67804,"ELEMENT_SET_NO":999,"REV_AT_EPOCH":482,"BSTAR":0.0012507492,"MEAN_MOTION_DOT":0.00191198,"MEAN_MOTION_DDOT":0}]
